KUIPER-00152            
1 65772U 25217L   26002.83335648 -.01284329  00000+0 -84478-1 0  9996
2 65772  51.8887 323.9503 0003101 125.0414  83.7769 15.09997472  5797
KUIPER-00153            
1 65773U 25217M   26002.32855303  .00026771  00000+0  15592-2 0  9990
2 65773  51.8789 336.4415 0013633  93.7180 266.5355 15.11756157 15050
KUIPER-00155            
1 65774U 25217N   26002.83335648 -.00971705  00000+0 -34644-1 0  9998
2 65774  51.8693 322.8466 0007124 102.5883 243.0112 15.30896858  4791
KUIPER-00156            
1 65775U 25217P   26002.83335648 -.00735585  00000+0 -28518-1 0  9996
2 65775  51.8758 322.1525 0002305 123.2362 194.8260 15.27955462  5488
KUIPER-00158            
1 65776U 25217Q   26002.16363593  .00007439  00000+0  10031-2 0  9993
2 65776  51.9005 339.7690 0001162  49.9818 310.1247 14.79961110 14999
KUIPER-00163            
1 65777U 25217R   26002.83335648  .00055396  00000+0  72488-2 0  9997
2 65777  51.8979 339.3124 0000610 123.2330 221.2791 14.79856918  5051
KUIPER-00165            
1 65778U 25217S   26002.83335648 -.00904725  00000+0 -89710-1 0  9994
2 65778  51.9185 327.4970 0006371 118.3919  10.0628 14.94017983  5250
KUIPER-00166            
1 65779U 25217T   26002.83335648 -.00523626  00000+0 -16409-1 0  9997
2 65779  51.8724 321.9999 0005260  83.2524 321.9333 15.34685909  3751
